NORAD_CAT_ID,OBJECT_NAME,OBJECT_TYPE,EPOCH,MEAN_MOTION,ECCENTRICITY,INCLINATION,RA_OF_ASC_NODE,ARG_OF_PERICENTER,MEAN_ANOMALY,BSTAR,MEAN_MOTION_DOT,MEAN_MOTION_DDOT,TLE_LINE0,TLE_LINE1,TLE_LINE2,SEMIMAJOR_AXIS,PERIOD,APOGEE,PERIGEE,DECAYED
53260.0,STARLINK-4136,PAYLOAD,2023-11-15 11:03:12,15.08837339,0.0001593,53.2168,28.5063,79.3225,280.7947,0.00039307,5.973e-05,0.0,0 STARLINK-4136,1 53260U 22086U   23319.46055733  .00005973  00000-0  39307-3 0  9994,2 53260  53.2168  28.5063 0001593  79.3225 280.7947 15.08837339 73467,6917.889,95.438,540.856,538.652,0.0
53260.0,STARLINK-4136,PAYLOAD,2023-11-15 22:10:54,15.08843905,0.0001621,53.2167,26.4247,79.1305,280.9869,0.0004717,7.228e-05,0.0,0 STARLINK-4136,1 53260U 22086U   23319.92423723  .00007228  00000-0  47170-3 0  9995,2 53260  53.2167  26.4247 0001621  79.1305 280.9869 15.08843905 73535,6917.868,95.437,540.855,538.612,0.0
53260.0,STARLINK-4136,PAYLOAD,2023-11-16 09:18:36,15.08844905,0.000166,53.217,24.3433,79.1728,280.9451,0.000337,5.08e-05,0.0,0 STARLINK-4136,1 53260U 22086U   23320.38791679  .00005080  00000-0  33700-3 0  9993,2 53260  53.2170  24.3433 0001660  79.1728 280.9451 15.08844905 73601,6917.865,95.437,540.879,538.582,0.0
53260.0,STARLINK-4136,PAYLOAD,2023-11-17 10:44:46,15.08842988,0.0001459,53.217,19.5835,92.0991,268.0169,0.0001728,2.463e-05,0.0,0 STARLINK-4136,1 53260U 22086U   23321.44775532  .00002463  00000-0  17280-3 0  9998,2 53260  53.2170  19.5835 0001459  92.0991 268.0169 15.08842988 73584,6917.871,95.437,540.746,538.727,0.0
53260.0,STARLINK-4136,PAYLOAD,2023-11-17 13:55:32,15.08844927,0.0001456,53.2173,18.9887,93.1005,267.0153,0.00013525,1.865e-05,0.0,0 STARLINK-4136,1 53260U 22086U   23321.58023386  .00001865  00000-0  13525-3 0  9999,2 53260  53.2173  18.9887 0001456  93.1005 267.0153 15.08844927 73781,6917.865,95.437,540.738,538.723,0.0
53260.0,STARLINK-4136,PAYLOAD,2023-11-18 04:14:00,15.08837792,0.0001555,53.2176,16.3116,94.8295,265.2875,2.695e-06,-2.45e-06,0.0,0 STARLINK-4136,1 53260U 22086U   23322.17639738 -.00000245  00000-0  26950-5 0  9999,2 53260  53.2176  16.3116 0001555  94.8295 265.2875 15.08837792 73693,6917.887,95.438,540.828,538.676,0.0
53260.0,STARLINK-4136,PAYLOAD,2023-11-18 10:35:33,15.08841284,0.000159,53.2182,15.122,101.9622,258.1549,5.6726e-05,6.15e-06,0.0,0 STARLINK-4136,1 53260U 22086U   23322.44135626  .00000615  00000-0  56726-4 0  9999,2 53260  53.2182  15.1220 0001590 101.9622 258.1549 15.08841284 73911,6917.876,95.437,540.841,538.642,0.0
53260.0,STARLINK-4136,PAYLOAD,2023-11-18 20:07:52,15.08837679,0.0001432,53.2184,13.3384,87.4496,272.666,6.0653e-05,6.77e-06,0.0,0 STARLINK-4136,1 53260U 22086U   23322.83879864  .00000677  00000-0  60653-4 0  9993,2 53260  53.2184  13.3384 0001432  87.4496 272.6660 15.08837679 73970,6917.887,95.438,540.743,538.762,0.0
53260.0,STARLINK-4136,PAYLOAD,2023-11-19 08:50:57,15.08842958,0.0001425,53.2182,10.9611,90.048,270.0675,9.3624e-05,1.203e-05,0.0,0 STARLINK-4136,1 53260U 22086U   23323.36871599  .00001203  00000-0  93624-4 0  9999,2 53260  53.2182  10.9611 0001425  90.0480 270.0675 15.08842958 73872,6917.871,95.437,540.722,538.751,0.0
53260.0,STARLINK-4136,PAYLOAD,2023-11-19 19:58:39,15.08842736,0.0001419,53.218,8.8793,88.9498,271.1657,8.4035e-05,1.05e-05,0.0,0 STARLINK-4136,1 53260U 22086U   23323.83239608  .00001050  00000-0  84035-4 0  9996,2 53260  53.2180   8.8793 0001419  88.9498 271.1657 15.08842736 74120,6917.872,95.437,540.719,538.755,0.0
53260.0,STARLINK-4136,PAYLOAD,2023-11-20 10:17:07,15.08840762,0.0001442,53.218,6.2033,87.6895,272.4262,9.3331e-05,1.198e-05,0.0,0 STARLINK-4136,1 53260U 22086U   23324.42855792  .00001198  00000-0  93331-4 0  9992,2 53260  53.2180   6.2033 0001442  87.6895 272.4262 15.08840762 74035,6917.878,95.438,540.741,538.746,0.0
53260.0,STARLINK-4136,PAYLOAD,2023-11-20 11:52:30,15.08842924,0.0001475,53.2181,5.9053,86.3269,273.7892,0.00010775,1.427e-05,0.0,0 STARLINK-4136,1 53260U 22086U   23324.49479634  .00001427  00000-0  10775-3 0  9991,2 53260  53.2181   5.9053 0001475  86.3269 273.7892 15.08842924 74227,6917.871,95.437,540.757,538.716,0.0
53260.0,STARLINK-4136,PAYLOAD,2023-11-20 19:49:26,15.08844029,0.0001488,53.2184,4.4184,86.9455,273.1707,9.2036e-05,1.177e-05,0.0,0 STARLINK-4136,1 53260U 22086U   23324.82599549  .00001177  00000-0  92036-4 0  9999,2 53260  53.2184   4.4184 0001488  86.9455 273.1707 15.08844029 74278,6917.868,95.437,540.762,538.704,0.0
53260.0,STARLINK-4136,PAYLOAD,2023-11-21 10:07:54,15.08842968,0.0001678,53.219,1.7427,91.739,268.3795,5.4009e-05,5.72e-06,0.0,0 STARLINK-4136,1 53260U 22086U   23325.42215752  .00000572  00000-0  54009-4 0  9993,2 53260  53.2190   1.7427 0001678  91.7390 268.3795 15.08842968 74361,6917.871,95.437,540.897,538.575,0.0
53260.0,STARLINK-4136,PAYLOAD,2023-11-22 11:34:03,15.08856677,0.000178,53.2185,356.9839,78.4345,281.6846,0.00018384,2.64e-05,0.0,0 STARLINK-4136,1 53260U 22086U   23326.48198892  .00002640  00000-0  18384-3 0  9998,2 53260  53.2185 356.9839 0001780  78.4345 281.6846 15.08856677 74348,6917.829,95.436,540.926,538.463,0.0
53260.0,STARLINK-4136,PAYLOAD,2023-11-23 01:52:33,15.08829677,0.0001806,53.2185,354.309,83.3287,276.7911,-2.8969e-05,-7.49e-06,0.0,0 STARLINK-4136,1 53260U 22086U   23327.07816566 -.00000749  00000-0 -28969-4 0  9990,2 53260  53.2185 354.3090 0001806  83.3287 276.7911 15.08829677 74436,6917.912,95.438,541.026,538.528,0.0
53260.0,STARLINK-4136,PAYLOAD,2023-11-23 08:14:06,15.08831131,0.0001959,53.2192,353.1207,70.9206,289.1998,-7.2153e-06,-4.03e-06,0.0,0 STARLINK-4136,1 53260U 22086U   23327.34312804 -.00000403  00000-0 -72153-5 0  9998,2 53260  53.2192 353.1207 0001959  70.9206 289.1998 15.08831131 74658,6917.907,95.438,541.128,538.417,0.0
53260.0,STARLINK-4136,PAYLOAD,2023-11-24 01:43:20,15.08837607,0.0001605,53.2186,349.8487,97.0913,263.0261,7.6631e-05,9.32e-06,0.0,0 STARLINK-4136,1 53260U 22086U   23328.07176694  .00000932  00000-0  76631-4 0  9993,2 53260  53.2186 349.8487 0001605  97.0913 263.0261 15.08837607 74586,6917.888,95.438,540.863,538.642,0.0
53260.0,STARLINK-4136,PAYLOAD,2023-11-24 08:04:53,15.08842891,0.0001823,53.218,348.6594,85.6334,274.4866,0.0003865,5.869e-05,0.0,0 STARLINK-4136,1 53260U 22086U   23328.33672830  .00005869  00000-0  38650-3 0  9997,2 53260  53.2180 348.6594 0001823  85.6334 274.4866 15.08842891 74801,6917.872,95.437,540.998,538.475,0.0
53260.0,STARLINK-4136,PAYLOAD,2023-11-25 07:55:40,15.0885447,0.000191,53.2185,344.1994,89.6647,270.4564,0.00049619,7.621e-05,0.0,0 STARLINK-4136,1 53260U 22086U   23329.33032561  .00007621  00000-0  49619-3 0  9994,2 53260  53.2185 344.1994 0001910  89.6647 270.4564 15.08854470 74952,6917.836,95.437,541.022,538.38,0.0
53260.0,STARLINK-4136,PAYLOAD,2023-11-26 07:46:26,15.08866921,0.0001957,53.2179,339.7394,103.9405,256.1805,0.0005606,8.652e-05,0.0,0 STARLINK-4136,1 53260U 22086U   23330.32391353  .00008652  00000-0  56060-3 0  9995,2 53260  53.2179 339.7394 0001957 103.9405 256.1805 15.08866921 75103,6917.798,95.436,541.017,538.309,0.0
53260.0,STARLINK-4136,PAYLOAD,2023-11-27 04:26:28,15.08802223,0.0001747,53.218,335.8771,84.5344,275.5848,-0.00077411,-0.00012574,0.0,0 STARLINK-4136,1 53260U 22086U   23331.18505753 -.00012574  00000-0 -77411-3 0  9994,2 53260  53.2180 335.8771 0001747  84.5344 275.5848 15.08802223 75055,6917.996,95.44,541.069,538.652,0.0
53260.0,STARLINK-4136,PAYLOAD,2023-11-27 06:01:52,15.08803848,0.0001757,53.2175,335.578,83.2703,276.8489,-0.00063049,-0.00010298,0.0,0 STARLINK-4136,1 53260U 22086U   23331.25130063 -.00010298  00000-0 -63049-3 0  9993,2 53260  53.2175 335.5780 0001757  83.2703 276.8489 15.08803848 75242,6917.991,95.44,541.071,538.64,0.0
53260.0,STARLINK-4136,PAYLOAD,2023-11-28 10:38:47,15.08858338,0.0002102,53.2181,330.2187,85.6234,274.4999,0.00068156,0.00010581,0.0,0 STARLINK-4136,1 53260U 22086U   23332.44361086  .00010581  00000-0  68156-3 0  9993,2 53260  53.2181 330.2187 0002102  85.6234 274.4999 15.08858338 75246,6917.824,95.436,541.143,538.235,0.0
53260.0,STARLINK-4136,PAYLOAD,2023-11-29 04:08:02,15.08851603,0.0002679,53.2169,326.9413,125.7172,234.4069,0.00035535,5.373e-05,0.0,0 STARLINK-4136,1 53260U 22086U   23333.17225142  .00005373  00000-0  35535-3 0  9994,2 53260  53.2169 326.9413 0002679 125.7172 234.4069 15.08851603 75356,6917.845,95.437,541.563,537.857,0.0
53260.0,STARLINK-4136,PAYLOAD,2023-11-29 08:54:11,15.08854583,0.0002218,53.218,326.0506,95.7066,264.4179,0.00033703,5.082e-05,0.0,0 STARLINK-4136,1 53260U 22086U   23333.37097093  .00005082  00000-0  33703-3 0  9990,2 53260  53.2180 326.0506 0002218  95.7066 264.4179 15.08854583 75568,6917.836,95.437,541.235,538.166,0.0
53260.0,STARLINK-4136,PAYLOAD,2023-11-30 03:58:49,15.08845399,0.0002356,53.2174,322.4877,87.1797,272.9465,6.7548e-06,-1.81e-06,0.0,0 STARLINK-4136,1 53260U 22086U   23334.16585031 -.00000181  00000-0  67548-5 0  9994,2 53260  53.2174 322.4877 0002356  87.1797 272.9465 15.08845399 75502,6917.864,95.437,541.359,538.099,0.0
53260.0,STARLINK-4136,PAYLOAD,2023-12-01 05:25:00,15.08836688,0.0002515,53.2196,317.7236,115.8173,244.3078,7.805e-05,9.54e-06,0.0,0 STARLINK-4136,1 53260U 22086U   23335.22569612  .00000954  00000-0  78050-4 0  9995,2 53260  53.2196 317.7236 0002515 115.8173 244.3078 15.08836688 75667,6917.891,95.438,541.495,538.016,0.0
53260.0,STARLINK-4136,PAYLOAD,2023-12-01 22:54:14,15.08854731,0.0002013,53.2172,314.4607,109.8416,250.2794,0.00055007,8.481e-05,0.0,0 STARLINK-4136,1 53260U 22086U   23335.95433459  .00008481  00000-0  55007-3 0  9993,2 53260  53.2172 314.4607 0002013 109.8416 250.2794 15.08854731 75775,6917.835,95.437,541.093,538.308,0.0
53260.0,STARLINK-4136,PAYLOAD,2023-12-02 05:15:46,15.08894737,0.0001947,53.2161,313.2755,95.4768,264.6446,0.0019516,0.00030955,0.0,0 STARLINK-4136,1 53260U 22086U   23336.21928798  .00030955  00000-0  19516-2 0  9993,2 53260  53.2161 313.2755 0001947  95.4768 264.6446 15.08894737 75817,6917.713,95.434,540.925,538.231,0.0
